#cP2012  9 26  0  0  0.00000000      96 ORBIT IGS08 HLM  IGS
## 1707 259200.00000000   900.00000000 56196 0.0000000000000
+   31   G01G02G03G04G05G06G07G08G09G10G11G12G13G14G15G16G17
+        G18G19G20G21G22G23G25G26G27G28G29G30G31G32  0  0  0
+          0  0  0  0  0  0  0  0  0  0  0  0  0  0  0  0  0
+          0  0  0  0  0  0  0  0  0  0  0  0  0  0  0  0  0
+          0  0  0  0  0  0  0  0  0  0  0  0  0  0  0  0  0
++         2  2  2  2  2  3  2  2  2  2  2  2  2  2  2  2  2
++         2  2  2  2  2  2  2  2  2  2  2  2  2  2  0  0  0
++         0  0  0  0  0  0  0  0  0  0  0  0  0  0  0  0  0
++         0  0  0  0  0  0  0  0  0  0  0  0  0  0  0  0  0
++         0  0  0  0  0  0  0  0  0  0  0  0  0  0  0  0  0
%c G  cc GPS ccc cccc cccc cccc cccc ccccc ccccc ccccc ccccc
%c cc cc ccc ccc cccc cccc cccc cccc ccccc ccccc ccccc ccccc
%f  1.2500000  1.025000000  0.00000000000  0.000000000000000
%f  0.0000000  0.000000000  0.00000000000  0.000000000000000
%i    0    0    0    0      0      0      0      0         0
%i    0    0    0    0      0      0      0      0         0
/* FINAL ORBIT COMBINATION FROM WEIGHTED AVERAGE OF:        
/* cod emr esa gfz grg jpl mit ngs sio                      
/* REFERENCED TO IGS TIME (IGST) AND TO WEIGHTED MEAN POLE: 
/* PCV:IGS08_1708 OL/AL:FES2004  NONE     Y  ORB:CMB CLK:CMB
*  2012  9 26 21 45  0.00000000
PG01  19685.535022  14110.257090 -10978.783002    275.293398  4  7  4 119       
PG02   1302.507972 -15929.834455  21401.573843    404.141947  6  6  5 113       
PG03  -5147.320085  22321.557052 -13726.039325    106.843716  6  6  4 120       
PG04  17070.150065  -8722.421384  18241.616326     -1.199905  6  2  8 106       
PG05  -1256.008935 -25698.677744   6278.647181   -355.069814  9  4  5 119       
PG06 -11257.255254  21834.602785  -9576.813179    499.042119  7  8  5  96       
PG07  25754.201284   6550.372970  -2726.105513    126.534558  7  5  6 124       
PG08  22268.473302   -848.330201 -14813.112449      2.223057  8  6  8  68       
PG09 -15569.535905 -15444.916431 -15484.686884    188.269926  5  8  7 128       
PG10  11012.283883 -14459.261098  18964.838394    -53.154202  7  4  5 121       
PG11  15446.609323  14088.849443 -16951.959644   -306.778214  6  4  4 124       
PG12 -11557.480787 -21492.413088  10697.626343     93.028987  9  7  7 122       
PG13  19936.129422   -582.327440  17462.842431    178.433710  8  7  4 112       
PG14 -21924.523133  14268.454435  -3909.877632    213.559876  7  5  7 123       
PG15  -5263.039202 -15770.510395 -20673.912349    -96.109825  8  6  8 110       
PG16    245.479538  25603.889985   6406.141031   -246.821302  6  5  6 133       
PG17  21517.432212 -14760.780981  -4019.907229     93.046424  7  7    121       
PG18 -16316.981461  -3232.770914 -20388.154267    216.864474  6  7  6 127       
PG19   1763.035645  16737.818548 -20519.506901   -307.511252  3  7  6 136       
PG20  14392.534497  18871.335158  11834.260965     69.091502  7  7  5 106       
PG21 -25938.211611  -4277.552047  -4990.870704   -252.183005  6  8  6 120       
PG22 -12284.846386  12745.967579 -19576.361405    148.473195  7  7  5 142       
PG23  12032.106599   9672.879000  21690.585939    160.440165  7  6  5 116       
PG25 -15704.558289  -9792.371135  19032.929536     44.234443  7  7  8 146       
PG26   7632.598234 -19751.298661 -16425.112095   -267.001335  5  5  4 131       
PG27 -13216.058526 -15303.825147 -16904.779257    435.653429  7  7  7 132       
PG28  12795.161751  -8661.016241 -21009.217913    189.303944  7  5  6  96       
PG29 -18131.198282  -2258.321528  19314.891710    359.772657  9  7  4 117       
PG30  -4586.497748  20703.629850  15646.272570   -393.200234  6  7  5  88       
PG31 -14093.221796   9781.001144  20535.854347    276.970270  5  7  6  71       
PG32   7267.797038  25310.032591   5307.255484   -492.113827  7  5  5 128       
*  2012  9 26 22  0  0.00000000
PG01  18291.970484  13945.840781 -13342.778828    275.294785  5  7  5 118       
PG02   3656.355040 -15323.352708  21526.643340    404.143014  6  6  5 123       
PG03  -6211.164613  23251.526887 -11451.016145    106.846965  6  6  5 110       
PG04  18991.882194  -8016.883750  16645.740020     -1.189804  6  3  8 100       
PG05   -764.357339 -24920.458241   8937.695189   -355.072485  8  4  5 129       
PG06 -12143.055573  22343.208106  -6969.353820    499.034078  7  8  5 102       
PG07  25844.836290   6774.469012    138.089673    126.538011  7  4  5 124       
PG08  23683.927337   -209.163455 -12525.039769      2.222790  8  7  8  50       
PG09 -13810.376895 -15094.395719 -17450.566334    188.272262  4  8  7 126       
PG10  11689.942029 -12253.819043  20100.577175    -53.154697  7  4  6 120       
PG11  13482.753258  14329.388934 -18372.859747   -306.781862  6  4  4 114       
PG12 -11638.555124 -22571.755080   8087.710123     93.030735  9  6  7 125       
PG13  18367.566590    827.459956  19076.060149    178.431731  8  7  4 107       
PG14 -21587.043973  13691.399508  -6719.812715    213.560652  7  6  8 125       
PG15  -3569.971992 -17361.987092 -19718.350225    -96.110698  7  7  8 118       
PG16   -141.778176  24770.912172   9133.885178   -246.821731  6  5  6 131       
PG17  21218.219351 -14133.280756  -6804.407888     93.043917  7  7    114       
PG18 -16804.013637  -5547.722982 -19523.664914    216.866253  6  7  6 125       
PG19    -71.931907  18095.264442 -19372.703482   -307.514620  4  6  6 127       
PG20  14479.682859  20144.393102   9422.272848     69.092088  7  7  5 113       
PG21 -26308.156522  -4685.896034  -2266.209647   -252.185118  6  7  7 122       
PG22 -12970.548222  10502.530568 -20450.126069    148.473904  7  8  5 137       
PG23  10241.811445  11379.911708  21747.126418    160.436655  7  6  5 122       
PG25 -16130.564900 -11843.218831  17454.304673     44.235754  8  7  8 144       
PG26   9012.990352 -20700.478627 -14312.344078   -266.989503  5  6  5 142       
PG27 -11134.050898 -14911.970000 -18564.386597    435.656140  7  7  7 128       
PG28  13360.312427  -6170.993038 -21535.293196    189.307178  8  4  5  81       
PG29 -16513.706460  -3850.165618  20485.221606    359.776272  9  6  5 114       
PG30  -5428.740748  18929.735731  17472.905049   -393.183707  5  7  5  92       
PG31 -16208.350398   9077.340643  19268.364450    276.972410  5  7  7  57       
PG32   7102.049011  25767.091105   2546.966347   -492.117366  7  4  5 119       
*  2012  9 26 22 15  0.00000000
PG01  16642.766153  13801.948969 -15477.956220    275.296250  6  7  5 117       
PG02   6035.779818 -14833.295901  21286.069149    404.144163  6  6  5 122       
PG03  -7084.639433  24012.310841  -8980.983158    106.852109  6  5  5 120       
PG04  20749.473304  -7448.498983  14761.311001     -1.179722  6  3  9 102       
PG05   -143.804034 -23889.492301  11441.621237   -355.075019  8  5  5 127       
PG06 -12813.204737  22656.685334  -4239.297605    499.025958  7  8  5 107       
PG07  25633.481991   6920.957475   2999.952181    126.542335  6  4  5 125       
PG08  24876.622390    261.219256 -10026.934113      2.222891  8  7  9  90       
PG09 -11839.124114 -14803.366507 -19127.065320    188.274590  4  8  7 131       
PG10  12504.408781  -9981.317691  20879.456089    -53.155931  7  3  6 120       
PG11  11391.374658  14660.957262 -19490.065967   -306.785167  6  4  4 123       
PG12 -11693.583217 -23354.315206   5340.025480     93.032723  9  6  7 124       
PG13  16757.552726   2435.339452  20358.565813    178.429174  7  6  4 104       
PG14 -21056.443274  12876.804707  -9412.377936    213.561350  8  6  8 116       
PG15  -2038.719931 -18939.379192 -18421.722481    -96.111352  7  7  8 108       
PG16   -654.327958  23669.064246  11701.593636   -246.822118  6  5  6 135       
PG17  20735.596804 -13266.833461  -9469.466434     93.040677  8  7    116       
PG18 -17361.786920  -7720.038088 -18315.128687    216.867624  7  7  7 127       
PG19  -1727.914169  19446.430167 -17890.636894   -307.517530  6  6  6 130       
PG20  14528.541931  21147.168257   6847.688768     69.092850  7  7  6 120       
PG21 -26398.705069  -5005.722357    496.395820   -252.187577  7  7  7 124       
PG22 -13781.980197   8218.338290 -20965.412728    148.474576  7  8  5 132       
PG23   8549.674599  13169.491887  21430.969254    160.433318  6  5  5 112       
PG25 -16603.475079 -13681.745437  15575.102650     44.236990  8  7  8 143       
PG26  10161.220295 -21555.019515 -11958.012566   -266.977573  5  6  5 133       
PG27  -8856.265574 -14605.784197 -19894.443332    435.660981  6  7  7 140       
PG28  14067.404816  -3678.891570 -21670.197189    189.310595  8  5  4 100       
PG29 -14903.726249  -5604.608764  21304.347437    359.779906  9  6  5 117       
PG30  -6440.107997  17024.248232  18990.805365   -393.167167  5  7  5  94       
PG31 -18202.543955   8529.975290  17676.849310    276.974851  7  7  7  82       
PG32   6889.121532  25929.992180   -255.750953   -492.120840  7  4  5 122       
EOF
